[{"OBJECT_NAME":"STARLINK-3603","OBJECT_ID":"2022-017BA","EPOCH":"2026-03-10T00:00:02.999808","MEAN_MOTION":15.75223157,"ECCENTRICITY":7.732e-5,"INCLINATION":53.2171,"RA_OF_ASC_NODE":308.3028,"ARG_OF_PERICENTER":120.0533,"MEAN_ANOMALY":293.8003,"EPHEMERIS_TYPE":0,"CLASSIFICATION_TYPE":"U","NORAD_CAT_ID":51816,"ELEMENT_SET_NO":999,"REV_AT_EPOCH":592,"BSTAR":0.0029857303,"MEAN_MOTION_DOT":0.00483888,"MEAN_MOTION_DDOT":0},{"OBJECT_NAME":"USA 486","OBJECT_ID":"2025-014Y","EPOCH":"2026-03-09T04:15:30.001248","MEAN_MOTION":15.76426632,"ECCENTRICITY":0.00017905,"INCLINATION":42.9993,"RA_OF_ASC_NODE":358.6312,"ARG_OF_PERICENTER":289.5937,"MEAN_ANOMALY":70.4739,"EPHEMERIS_TYPE":0,"CLASSIFICATION_TYPE":"U","NORAD_CAT_ID":62757,"ELEMENT_SET_NO":999,"REV_AT_EPOCH":6499,"BSTAR":0.0018147049,"MEAN_MOTION_DOT":0.00306785,"MEAN_MOTION_DDOT":0}]
